{
  "type": "FeatureCollection",
  "features": [
    {
      "type": "Feature",
      "properties": {
        "norad_id": 30736,
        "name": "FENGYUN 1C DEB",
        "group": "fengyun-1c-debris",
        "lat": 36.5617812254046,
        "lon": -157.2171904338178,
        "alt_km": 929.6888891687204,
        "timestamp": "2025-12-03T06:58:43.516370+00:00",
        "meta_object_name": "FENGYUN 1C DEB",
        "meta_object_id": "1999-025ASW",
        "meta_epoch": "2025-12-02T02:21:41.486112",
        "meta_mean_motion": 13.61584832,
        "meta_eccentricity": 0.02814534,
        "meta_inclination": 98.794,
        "meta_ra_of_asc_node": 15.1149,
        "meta_arg_of_pericenter": 82.4102,
        "meta_mean_anomaly": 335.9555,
        "meta_ephemeris_type": 0,
        "meta_classification_type": "U",
        "meta_norad_cat_id": 30736,
        "meta_element_set_no": 999,
        "meta_rev_at_epoch": 92708,
        "meta_bstar": 0.0022039169,
        "meta_mean_motion_dot": 2.161e-05,
        "meta_mean_motion_ddot": 0,
        "tle_line1": "1 30736U 99025ASW 25336.09839683  .00002161  00000+0  22039-2 0  9996",
        "tle_line2": "2 30736  98.7940  15.1149 0281453  82.4102 335.9555 13.61584832927081"
      },
      "geometry": {
        "type": "Point",
        "coordinates": [
          -157.2171904338178,
          36.5617812254046
        ]
      }
    },
    {
      "type": "Feature",
      "properties": {
        "norad_id": 30737,
        "name": "FENGYUN 1C DEB",
        "group": "fengyun-1c-debris",
        "lat": 49.42352031442921,
        "lon": -50.228665327231155,
        "alt_km": 832.0221965968076,
        "timestamp": "2025-12-03T06:58:43.516380+00:00",
        "meta_object_name": "FENGYUN 1C DEB",
        "meta_object_id": "1999-025ASX",
        "meta_epoch": "2025-12-02T11:08:06.805824",
        "meta_mean_motion": 14.18232772,
        "meta_eccentricity": 0.00236015,
        "meta_inclination": 98.5784,
        "meta_ra_of_asc_node": 319.1241,
        "meta_arg_of_pericenter": 160.6166,
        "meta_mean_anomaly": 350.8675,
        "meta_ephemeris_type": 0,
        "meta_classification_type": "U",
        "meta_norad_cat_id": 30737,
        "meta_element_set_no": 999,
        "meta_rev_at_epoch": 96887,
        "meta_bstar": 0.00039633661,
        "meta_mean_motion_dot": 7.75e-06,
        "meta_mean_motion_ddot": 0,
        "tle_line1": "1 30737U 99025ASX 25336.46396766  .00000775  00000+0  39634-3 0  9997",
        "tle_line2": "2 30737  98.5784 319.1241 0023601 160.6166 350.8675 14.18232772968871"
      },
      "geometry": {
        "type": "Point",
        "coordinates": [
          -50.228665327231155,
          49.42352031442921
        ]
      }
    },
    {
      "type": "Feature",
      "properties": {
        "norad_id": 30739,
        "name": "FENGYUN 1C DEB",
        "group": "fengyun-1c-debris",
        "lat": -78.50163616718109,
        "lon": 13.431628716095114,
        "alt_km": 820.4501551577241,
        "timestamp": "2025-12-03T06:58:43.516391+00:00",
        "meta_object_name": "FENGYUN 1C DEB",
        "meta_object_id": "1999-025ASZ",
        "meta_epoch": "2025-12-02T10:03:39.075264",
        "meta_mean_motion": 14.1492099,
        "meta_eccentricity": 0.0101148,
        "meta_inclination": 98.6918,
        "meta_ra_of_asc_node": 323.8195,
        "meta_arg_of_pericenter": 346.8201,
        "meta_mean_anomaly": 174.721,
        "meta_ephemeris_type": 0,
        "meta_classification_type": "U",
        "meta_norad_cat_id": 30739,
        "meta_element_set_no": 999,
        "meta_rev_at_epoch": 96717,
        "meta_bstar": 0.00060152492,
        "meta_mean_motion_dot": 1.178e-05,
        "meta_mean_motion_ddot": 0,
        "tle_line1": "1 30739U 99025ASZ 25336.41920226  .00001178  00000+0  60152-3 0  9995",
        "tle_line2": "2 30739  98.6918 323.8195 0101148 346.8201 174.7210 14.14920990967176"
      },
      "geometry": {
        "type": "Point",
        "coordinates": [
          13.431628716095114,
          -78.50163616718109
        ]
      }
    },
    {
      "type": "Feature",
      "properties": {
        "norad_id": 30740,
        "name": "FENGYUN 1C DEB",
        "group": "fengyun-1c-debris",
        "lat": 54.37590186719273,
        "lon": -85.6054480413688,
        "alt_km": 697.3797611937534,
        "timestamp": "2025-12-03T06:58:43.516401+00:00",
        "meta_object_name": "FENGYUN 1C DEB",
        "meta_object_id": "1999-025ATA",
        "meta_epoch": "2025-12-02T05:35:26.072160",
        "meta_mean_motion": 14.51544473,
        "meta_eccentricity": 0.0032721,
        "meta_inclination": 98.6899,
        "meta_ra_of_asc_node": 80.9775,
        "meta_arg_of_pericenter": 167.2745,
        "meta_mean_anomaly": 192.9283,
        "meta_ephemeris_type": 0,
        "meta_classification_type": "U",
        "meta_norad_cat_id": 30740,
        "meta_element_set_no": 999,
        "meta_rev_at_epoch": 97495,
        "meta_bstar": 0.0033803,
        "meta_mean_motion_dot": 0.00013595,
        "meta_mean_motion_ddot": 0,
        "tle_line1": "1 30740U 99025ATA 25336.23294065  .00013595  00000+0  33803-2 0  9990",
        "tle_line2": "2 30740  98.6899  80.9775 0032721 167.2745 192.9283 14.51544473974954"
      },
      "geometry": {
        "type": "Point",
        "coordinates": [
          -85.6054480413688,
          54.37590186719273
        ]
      }
    },
    {
      "type": "Feature",
      "properties": {
        "norad_id": 30741,
        "name": "FENGYUN 1C DEB",
        "group": "fengyun-1c-debris",
        "lat": -44.46213521076015,
        "lon": 158.2212589583003,
        "alt_km": 854.5442873218162,
        "timestamp": "2025-12-03T06:58:43.516411+00:00",
        "meta_object_name": "FENGYUN 1C DEB",
        "meta_object_id": "1999-025ATB",
        "meta_epoch": "2025-12-02T16:38:24.262368",
        "meta_mean_motion": 14.13224853,
        "meta_eccentricity": 0.0006752,
        "meta_inclination": 98.6799,
        "meta_ra_of_asc_node": 346.264,
        "meta_arg_of_pericenter": 142.1836,
        "meta_mean_anomaly": 284.9044,
        "meta_ephemeris_type": 0,
        "meta_classification_type": "U",
        "meta_norad_cat_id": 30741,
        "meta_element_set_no": 999,
        "meta_rev_at_epoch": 96677,
        "meta_bstar": 0.00020316,
        "meta_mean_motion_dot": 3.38e-06,
        "meta_mean_motion_ddot": 0,
        "tle_line1": "1 30741U 99025ATB 25336.69333637  .00000338  00000+0  20316-3 0  9997",
        "tle_line2": "2 30741  98.6799 346.2640 0006752 142.1836 284.9044 14.13224853966774"
      },
      "geometry": {
        "type": "Point",
        "coordinates": [
          158.2212589583003,
          -44.46213521076015
        ]
      }
    },
    {
      "type": "Feature",
      "properties": {
        "norad_id": 30742,
        "name": "FENGYUN 1C DEB",
        "group": "fengyun-1c-debris",
        "lat": -36.9796046074977,
        "lon": 28.605379055205518,
        "alt_km": 846.1848770860934,
        "timestamp": "2025-12-03T06:58:43.516422+00:00",
        "meta_object_name": "FENGYUN 1C DEB",
        "meta_object_id": "1999-025ATC",
        "meta_epoch": "2025-12-02T02:28:16.836096",
        "meta_mean_motion": 14.10277822,
        "meta_eccentricity": 0.007059,
        "meta_inclination": 98.8694,
        "meta_ra_of_asc_node": 20.6817,
        "meta_arg_of_pericenter": 256.808,
        "meta_mean_anomaly": 157.8626,
        "meta_ephemeris_type": 0,
        "meta_classification_type": "U",
        "meta_norad_cat_id": 30742,
        "meta_element_set_no": 999,
        "meta_rev_at_epoch": 95892,
        "meta_bstar": 0.0016740351,
        "meta_mean_motion_dot": 2.994e-05,
        "meta_mean_motion_ddot": 0,
        "tle_line1": "1 30742U 99025ATC 25336.10297264  .00002994  00000+0  16740-2 0  9994",
        "tle_line2": "2 30742  98.8694  20.6817 0070590 256.8080 157.8626 14.10277822958928"
      },
      "geometry": {
        "type": "Point",
        "coordinates": [
          28.605379055205518,
          -36.9796046074977
        ]
      }
    },
    {
      "type": "Feature",
      "properties": {
        "norad_id": 30744,
        "name": "FENGYUN 1C DEB",
        "group": "fengyun-1c-debris",
        "lat": -56.53074924264549,
        "lon": 135.879215840387,
        "alt_km": 604.3592113271889,
        "timestamp": "2025-12-03T06:58:43.516432+00:00",
        "meta_object_name": "FENGYUN 1C DEB",
        "meta_object_id": "1999-025ATE",
        "meta_epoch": "2025-12-02T08:47:03.639840",
        "meta_mean_motion": 14.88004398,
        "meta_eccentricity": 0.0009515,
        "meta_inclination": 98.7315,
        "meta_ra_of_asc_node": 121.4193,
        "meta_arg_of_pericenter": 296.0234,
        "meta_mean_anomaly": 95.4638,
        "meta_ephemeris_type": 0,
        "meta_classification_type": "U",
        "meta_norad_cat_id": 30744,
        "meta_element_set_no": 999,
        "meta_rev_at_epoch": 97934,
        "meta_bstar": 0.0058487426,
        "meta_mean_motion_dot": 0.00054069,
        "meta_mean_motion_ddot": 0,
        "tle_line1": "1 30744U 99025ATE 25336.36601435  .00054069  00000+0  58487-2 0  9997",
        "tle_line2": "2 30744  98.7315 121.4193 0009515 296.0234  95.4638 14.88004398979342"
      },
      "geometry": {
        "type": "Point",
        "coordinates": [
          135.879215840387,
          -56.53074924264549
        ]
      }
    }
  ]
}